{
  "type": "FeatureCollection",
  "features": [
    {
      "type": "Feature",
      "properties": {
        "norad_id": 38867,
        "name": "INTELSAT 23 (IS-23)",
        "group": "intelsat",
        "lat": 0.0335770762670899,
        "lon": 144.0911657578492,
        "alt_km": 35785.02912633514,
        "timestamp": "2025-12-12T07:43:20.171473+00:00",
        "meta_object_name": "INTELSAT 23 (IS-23)",
        "meta_object_id": "2012-057A",
        "meta_epoch": "2025-12-11T23:31:57.016128",
        "meta_mean_motion": 1.00272951,
        "meta_eccentricity": 0.00010728,
        "meta_inclination": 0.0429,
        "meta_ra_of_asc_node": 96.7078,
        "meta_arg_of_pericenter": 127.4767,
        "meta_mean_anomaly": 156.74,
        "meta_ephemeris_type": 0,
        "meta_classification_type": "U",
        "meta_norad_cat_id": 38867,
        "meta_element_set_no": 999,
        "meta_rev_at_epoch": 4807,
        "meta_bstar": 0,
        "meta_mean_motion_dot": -2.76e-06,
        "meta_mean_motion_ddot": 0,
        "tle_line1": "1 38867U 12057A   25345.98052102 -.00000276  00000+0  00000+0 0  9997",
        "tle_line2": "2 38867   0.0429  96.7078 0001072 127.4767 156.7400  1.00272951 48079"
      },
      "geometry": {
        "type": "Point",
        "coordinates": [
          144.0911657578492,
          0.0335770762670899
        ]
      }
    },
    {
      "type": "Feature",
      "properties": {
        "norad_id": 39360,
        "name": "FM-6",
        "group": "intelsat",
        "lat": 0.0085543114940084,
        "lon": 80.91869118571742,
        "alt_km": 35787.26673130384,
        "timestamp": "2025-12-12T07:43:20.171485+00:00",
        "meta_object_name": "FM-6",
        "meta_object_id": "2013-058A",
        "meta_epoch": "2025-12-11T23:13:51.248928",
        "meta_mean_motion": 1.00272566,
        "meta_eccentricity": 0.00029422,
        "meta_inclination": 0.0106,
        "meta_ra_of_asc_node": 73.8045,
        "meta_arg_of_pericenter": 103.619,
        "meta_mean_anomaly": 135.8137,
        "meta_ephemeris_type": 0,
        "meta_classification_type": "U",
        "meta_norad_cat_id": 39360,
        "meta_element_set_no": 999,
        "meta_rev_at_epoch": 4419,
        "meta_bstar": 0,
        "meta_mean_motion_dot": -8e-08,
        "meta_mean_motion_ddot": 0,
        "tle_line1": "1 39360U 13058A   25345.96795427 -.00000008  00000+0  00000+0 0  9993",
        "tle_line2": "2 39360   0.0106  73.8045 0002942 103.6190 135.8137  1.00272566 44199"
      },
      "geometry": {
        "type": "Point",
        "coordinates": [
          80.91869118571742,
          0.0085543114940084
        ]
      }
    },
    {
      "type": "Feature",
      "properties": {
        "norad_id": 40271,
        "name": "INTELSAT 30 (IS-30)",
        "group": "intelsat",
        "lat": 0.029511818567666256,
        "lon": 102.03832699257086,
        "alt_km": 35779.661623894215,
        "timestamp": "2025-12-12T07:43:20.171496+00:00",
        "meta_object_name": "INTELSAT 30 (IS-30)",
        "meta_object_id": "2014-062A",
        "meta_epoch": "2025-12-11T08:43:38.851968",
        "meta_mean_motion": 1.00271845,
        "meta_eccentricity": 0.00015432,
        "meta_inclination": 0.0188,
        "meta_ra_of_asc_node": 35.8315,
        "meta_arg_of_pericenter": 56.6474,
        "meta_mean_anomaly": 23.6951,
        "meta_ephemeris_type": 0,
        "meta_classification_type": "U",
        "meta_norad_cat_id": 40271,
        "meta_element_set_no": 999,
        "meta_rev_at_epoch": 490,
        "meta_bstar": 0,
        "meta_mean_motion_dot": -1.44e-06,
        "meta_mean_motion_ddot": 0,
        "tle_line1": "1 40271U 14062A   25345.36364412 -.00000144  00000+0  00000+0 0  9993",
        "tle_line2": "2 40271   0.0188  35.8315 0001543  56.6474  23.6951  1.00271845  4900"
      },
      "geometry": {
        "type": "Point",
        "coordinates": [
          102.03832699257086,
          0.029511818567666256
        ]
      }
    },
    {
      "type": "Feature",
      "properties": {
        "norad_id": 40333,
        "name": "DIRECTV 14",
        "group": "intelsat",
        "lat": 0.023058504486705534,
        "lon": 97.88726305581629,
        "alt_km": 35785.71712726923,
        "timestamp": "2025-12-12T07:43:20.171508+00:00",
        "meta_object_name": "DIRECTV 14",
        "meta_object_id": "2014-078B",
        "meta_epoch": "2025-12-11T14:45:07.933824",
        "meta_mean_motion": 1.00273916,
        "meta_eccentricity": 4.131e-05,
        "meta_inclination": 0.0158,
        "meta_ra_of_asc_node": 316.5152,
        "meta_arg_of_pericenter": 238.3752,
        "meta_mean_anomaly": 7.7536,
        "meta_ephemeris_type": 0,
        "meta_classification_type": "U",
        "meta_norad_cat_id": 40333,
        "meta_element_set_no": 999,
        "meta_rev_at_epoch": 4016,
        "meta_bstar": 0,
        "meta_mean_motion_dot": -1.18e-06,
        "meta_mean_motion_ddot": 0,
        "tle_line1": "1 40333U 14078B   25345.61467516 -.00000118  00000+0  00000+0 0  9997",
        "tle_line2": "2 40333   0.0158 316.5152 0000413 238.3752   7.7536  1.00273916 40168"
      },
      "geometry": {
        "type": "Point",
        "coordinates": [
          97.88726305581629,
          0.023058504486705534
        ]
      }
    },
    {
      "type": "Feature",
      "properties": {
        "norad_id": 40663,
        "name": "DIRECTV 15",
        "group": "intelsat",
        "lat": 0.022721422364363284,
        "lon": 94.23273017635299,
        "alt_km": 35786.862046572336,
        "timestamp": "2025-12-12T07:43:20.171520+00:00",
        "meta_object_name": "DIRECTV 15",
        "meta_object_id": "2015-026A",
        "meta_epoch": "2025-12-11T21:34:58.683648",
        "meta_mean_motion": 1.00271604,
        "meta_eccentricity": 2.198e-05,
        "meta_inclination": 0.0402,
        "meta_ra_of_asc_node": 85.3093,
        "meta_arg_of_pericenter": 150.3651,
        "meta_mean_anomaly": 66.0596,
        "meta_ephemeris_type": 0,
        "meta_classification_type": "U",
        "meta_norad_cat_id": 40663,
        "meta_element_set_no": 999,
        "meta_rev_at_epoch": 3858,
        "meta_bstar": 0,
        "meta_mean_motion_dot": -9.4e-07,
        "meta_mean_motion_ddot": 0,
        "tle_line1": "1 40663U 15026A   25345.89929032 -.00000094  00000+0  00000+0 0  9996",
        "tle_line2": "2 40663   0.0402  85.3093 0000219 150.3651  66.0596  1.00271604 38585"
      },
      "geometry": {
        "type": "Point",
        "coordinates": [
          94.23273017635299,
          0.022721422364363284
        ]
      }
    },
    {
      "type": "Feature",
      "properties": {
        "norad_id": 40664,
        "name": "SKY MEXICO-1",
        "group": "intelsat",
        "lat": 0.030582939081024337,
        "lon": 118.32083674385179,
        "alt_km": 35795.95041033829,
        "timestamp": "2025-12-12T07:43:20.171532+00:00",
        "meta_object_name": "SKY MEXICO-1",
        "meta_object_id": "2015-026B",
        "meta_epoch": "2025-12-11T23:24:35.220960",
        "meta_mean_motion": 1.00272425,
        "meta_eccentricity": 0.00025713,
        "meta_inclination": 0.0344,
        "meta_ra_of_asc_node": 76.486,
        "meta_arg_of_pericenter": 199.0992,
        "meta_mean_anomaly": 77.7231,
        "meta_ephemeris_type": 0,
        "meta_classification_type": "U",
        "meta_norad_cat_id": 40664,
        "meta_element_set_no": 999,
        "meta_rev_at_epoch": 3857,
        "meta_bstar": 0,
        "meta_mean_motion_dot": -2.26e-06,
        "meta_mean_motion_ddot": 0,
        "tle_line1": "1 40664U 15026B   25345.97540765 -.00000226  00000+0  00000+0 0  9995",
        "tle_line2": "2 40664   0.0344  76.4860 0002571 199.0992  77.7231  1.00272425 38571"
      },
      "geometry": {
        "type": "Point",
        "coordinates": [
          118.32083674385179,
          0.030582939081024337
        ]
      }
    },
    {
      "type": "Feature",
      "properties": {
        "norad_id": 40874,
        "name": "INTELSAT 34 (IS-34)",
        "group": "intelsat",
        "lat": 0.005914802763528234,
        "lon": 141.59117195861674,
        "alt_km": 35784.62505640048,
        "timestamp": "2025-12-12T07:43:20.171544+00:00",
        "meta_object_name": "INTELSAT 34 (IS-34)",
        "meta_object_id": "2015-039A",
        "meta_epoch": "2025-12-11T23:31:12.087264",
        "meta_mean_motion": 1.00271493,
        "meta_eccentricity": 4.138e-05,
        "meta_inclination": 0.0122,
        "meta_ra_of_asc_node": 331.2537,
        "meta_arg_of_pericenter": 194.7876,
        "meta_mean_anomaly": 212.1872,
        "meta_ephemeris_type": 0,
        "meta_classification_type": "U",
        "meta_norad_cat_id": 40874,
        "meta_element_set_no": 999,
        "meta_rev_at_epoch": 3774,
        "meta_bstar": 0,
        "meta_mean_motion_dot": -2.77e-06,
        "meta_mean_motion_ddot": 0,
        "tle_line1": "1 40874U 15039A   25345.98000101 -.00000277  00000+0  00000+0 0  9994",
        "tle_line2": "2 40874   0.0122 331.2537 0000413 194.7876 212.1872  1.00271493 37745"
      },
      "geometry": {
        "type": "Point",
        "coordinates": [
          141.59117195861674,
          0.005914802763528234
        ]
      }
    }
  ]
}